NAVSTAR 48 (USA 151)    
1 26407U 00040A   26199.72016632  .00000045  00000+0  00000+0 0  9994
2 26407  54.8481 213.9096 0120417 302.7882  68.8565  2.00557927190584
NAVSTAR 51 (USA 166)    
1 27663U 03005A   26199.03281471  .00000041  00000+0  00000+0 0  9998
2 27663  54.8786 213.7432 0148342  53.1791 318.3860  2.00558906171939
NAVSTAR 54 (USA 177)    
1 28190U 04009A   26199.89017125 -.00000048  00000+0  00000+0 0  9994
2 28190  54.8035 274.4049 0117297 174.5065 248.5717  2.00553630163583
NAVSTAR 56 (USA 180)    
1 28474U 04045A   26198.67621534 -.00000098  00000+0  00000+0 0  9994
2 28474  55.1165 323.6683 0170225 317.1195  14.5735  2.00557200159039
NAVSTAR 57 (USA 183)    
1 28874U 05038A   26199.24654649 -.00000041  00000+0  00000+0 0  9996
2 28874  54.8531 271.9225 0128265 296.4514  51.7295  2.00563533152453
INMARSAT 4-F2           
1 28899U 05044A   26199.62686265 -.00000269  00000+0  00000+0 0  9993
2 28899   5.1356  43.6784 0002852  60.9664 200.9444  1.00271304 75832
NAVSTAR 58 (USA 190)    
1 29486U 06042A   26199.68967633  .00000035  00000+0  00000+0 0  9992
2 29486  54.7131 150.0883 0107280  55.2551 151.8958  2.00568062145026
NAVSTAR 59 (USA 192)    
1 29601U 06052A   26199.33090617  .00000044  00000+0  00000+0 0  9993
2 29601  54.9320 212.7716 0084754  91.0016 269.9965  2.00559878144036
NAVSTAR 60 (USA 196)    
1 32260U 07047A   26199.63672205 -.00000051  00000+0  00000+0 0  9994
2 32260  54.1184  78.7692 0167902  88.0692 273.9140  2.00553808137441
COSMOS 2433 [GLONASS-M] 
1 32275U 07052A   26198.88664808 -.00000070  00000+0  00000+0 0  9993
2 32275  65.5578 314.9006 0003631 203.8821 156.1180  2.13104037145718
COSMOS 2432 [GLONASS-M] 
1 32276U 07052B   26199.90495562 -.00000076  00000+0  00000+0 0  9993
2 32276  65.5730 314.9948 0007380 321.4337  43.5458  2.13103040145763
NAVSTAR 61 (USA 199)    
1 32384U 07062A   26199.41219699 -.00000043  00000+0  00000+0 0  9999
2 32384  55.0070 272.8960 0036072 167.7271 158.2218  2.00561816136132
COSMOS 2434 [GLONASS-M] 
1 32393U 07065A   26199.49568220  .00000065  00000+0  00000+0 0  9990
2 32393  64.3202 190.8597 0001233 326.9616  29.9549  2.13101158144436
COSMOS 2436 [GLONASS-M] 
1 32395U 07065C   26199.56543993  .00000065  00000+0  00000+0 0  9990
2 32395  64.3287 190.9299 0017321 353.5976 189.0118  2.13099956144398
NAVSTAR 62 (USA 201)    
1 32711U 08012A   26199.04649594  .00000031  00000+0  00000+0 0  9995
2 32711  54.5003 148.6919 0211705 248.1782 109.5290  2.00573231134376
NAVSTAR 64 (USA 206)    
1 35752U 09043A   26199.54963450 -.00000089  00000+0  00000+0 0  9997
2 35752  56.2300  26.2211 0053688  84.5356 286.1114  2.00552618123991
COSMOS 2456 [GLONASS-M] 
1 36111U 09070A   26197.17812943 -.00000016  00000+0  00000+0 0  9994
2 36111  65.0282  69.9837 0003619 341.3386 195.9451  2.13103565129042
COSMOS 2457 [GLONASS-M] 
1 36112U 09070B   26199.82229978 -.00000040  00000+0  00000+0 0  9996
2 36112  65.0154  69.7367 0004220 121.6257  51.3021  2.13100964129107
COSMOS 2460 [GLONASS-M] 
1 36402U 10007C   26199.35669755 -.00000072  00000+0  00000+0 0  9994
2 36402  65.4006 313.4121 0001849 148.1871  29.5036  2.13101436127393
NAVSTAR 65 (USA 213)    
1 36585U 10022A   26199.36543090  .00000047  00000+0  00000+0 0  9998
2 36585  54.2683 207.3060 0126804  66.1575 291.5184  2.00563940118218
BEIDOU-2 IGSO-1         
1 36828U 10036A   26198.83967113 -.00000112  00000+0  00000+0 0  9994
2 36828  54.3070 162.6827 0058852 225.1686 317.0611  1.00263080 58404
BEIDOU-2 G4             
1 37210U 10057A   26199.62022973 -.00000121  00000+0  00000+0 0  9997
2 37210   3.7234  68.7521 0005544 185.6049  65.2733  1.00272564 57605
BEIDOU-2 IGSO-2         
1 37256U 10068A   26198.92294310 -.00000202  00000+0  00000+0 0  9997
2 37256  47.4899 271.4483 0056956 213.9138 250.9288  1.00272861 57107
BEIDOU-2 IGSO-3         
1 37384U 11013A   26199.50047846 -.00000175  00000+0  00000+0 0  9994
2 37384  62.4507  39.8549 0035562 183.4443 359.4682  1.00260006 55975
GSAT-8                  
1 37605U 11022A   26199.85515461  .00000077  00000+0  00000+0 0  9991
2 37605   2.2112  81.4381 0002486 156.5679  61.5854  1.00271355 53534
BEIDOU-2 IGSO-4         
1 37763U 11038A   26199.86161028 -.00000026  00000+0  00000+0 0  9995
2 37763  54.6051 165.3909 0160238 231.4788 304.3437  1.00278571 54964
GSAT0101 (GALILEO-PFM)  
1 37846U 11060A   26198.93738454 -.00000105  00000+0  00000+0 0  9990
2 37846  56.9832 340.9281 0002114  62.8592 297.1517  1.70475655 91642
GSAT0102 (GALILEO-FM2)  
1 37847U 11060B   26196.51364557 -.00000101  00000+0  00000+0 0  9998
2 37847  56.9849 340.9943 0002108   7.4765 350.6813  1.70475846 91608
COSMOS 2476 [GLONASS-M] 
1 37867U 11064A   26199.17433977 -.00000032  00000+0  00000+0 0  9995
2 37867  65.2874  71.8256 0022067 235.6441 301.3919  2.13103618114429
COSMOS 2477 [GLONASS-M] 
1 37868U 11064B   26196.15395625 -.00000010  00000+0  00000+0 0  9994
2 37868  65.2921  72.0075 0019117 236.8947 323.2552  2.13102912114355
COSMOS 2475 [GLONASS-M] 
1 37869U 11064C   26198.80033905 -.00000028  00000+0  00000+0 0  9998
2 37869  65.3005  71.9400 0024690 250.9775 134.3774  2.13101626114424
